[{"OBJECT_NAME":"ATLAS CENTAUR 2","OBJECT_ID":"1963-047A","EPOCH":"2026-04-27T19:37:34.042368","MEAN_MOTION":14.12311001,"ECCENTRICITY":0.0546487,"INCLINATION":30.3535,"RA_OF_ASC_NODE":281.0431,"ARG_OF_PERICENTER":153.3461,"MEAN_ANOMALY":209.6345,"EPHEMERIS_TYPE":0,"CLASSIFICATION_TYPE":"U","NORAD_CAT_ID":694,"ELEMENT_SET_NO":999,"REV_AT_EPOCH":13857,"BSTAR":0.00051552,"MEAN_MOTION_DOT":4.305e-5,"MEAN_MOTION_DDOT":0},{"OBJECT_NAME":"THOR AGENA D R/B","OBJECT_ID":"1964-002A","EPOCH":"2026-04-27T18:45:52.508736","MEAN_MOTION":14.34043795,"ECCENTRICITY":0.0033896,"INCLINATION":99.1186,"RA_OF_ASC_NODE":133.7901,"ARG_OF_PERICENTER":114.9701,"MEAN_ANOMALY":245.5009,"EPHEMERIS_TYPE":0,"CLASSIFICATION_TYPE":"U","NORAD_CAT_ID":733,"ELEMENT_SET_NO":999,"REV_AT_EPOCH":24533,"BSTAR":8.1811e-5,"MEAN_MOTION_DOT":1.82e-6,"MEAN_MOTION_DDOT":0},{"OBJECT_NAME":"SL-3 R/B","OBJECT_ID":"1964-053B","EPOCH":"2026-04-27T13:16:45.958080","MEAN_MOTION":14.61400052,"ECCENTRICITY":0.0081148,"INCLINATION":65.0765,"RA_OF_ASC_NODE":187.973,"ARG_OF_PERICENTER":276.9031,"MEAN_ANOMALY":82.2843,"EPHEMERIS_TYPE":0,"CLASSIFICATION_TYPE":"U","NORAD_CAT_ID":877,"ELEMENT_SET_NO":999,"REV_AT_EPOCH":27393,"BSTAR":5.5421e-5,"MEAN_MOTION_DOT":1.61e-6,"MEAN_MOTION_DDOT":0},{"OBJECT_NAME":"SL-8 R/B","OBJECT_ID":"1967-045B","EPOCH":"2026-04-27T20:18:45.612000","MEAN_MOTION":14.45656531,"ECCENTRICITY":0.0065154,"INCLINATION":74.0105,"RA_OF_ASC_NODE":256.2775,"ARG_OF_PERICENTER":252.1158,"MEAN_ANOMALY":107.2888,"EPHEMERIS_TYPE":0,"CLASSIFICATION_TYPE":"U","NORAD_CAT_ID":2802,"ELEMENT_SET_NO":999,"REV_AT_EPOCH":9612,"BSTAR":0.00010454,"MEAN_MOTION_DOT":3.5e-6,"MEAN_MOTION_DDOT":0},{"OBJECT_NAME":"SL-8 R/B","OBJECT_ID":"1968-040B","EPOCH":"2026-04-27T16:27:06.641856","MEAN_MOTION":15.03570018,"ECCENTRICITY":0.0024136,"INCLINATION":74.0316,"RA_OF_ASC_NODE":213.5492,"ARG_OF_PERICENTER":17.4554,"MEAN_ANOMALY":342.7459,"EPHEMERIS_TYPE":0,"CLASSIFICATION_TYPE":"U","NORAD_CAT_ID":3230,"ELEMENT_SET_NO":999,"REV_AT_EPOCH":9737,"BSTAR":0.00023923,"MEAN_MOTION_DOT":3.247e-5,"MEAN_MOTION_DDOT":0},{"OBJECT_NAME":"OAO 2","OBJECT_ID":"1968-110A","EPOCH":"2026-04-27T08:23:48.617664","MEAN_MOTION":14.47332436,"ECCENTRICITY":0.0006161,"INCLINATION":34.9949,"RA_OF_ASC_NODE":353.5329,"ARG_OF_PERICENTER":232.0894,"MEAN_ANOMALY":127.924,"EPHEMERIS_TYPE":0,"CLASSIFICATION_TYPE":"U","NORAD_CAT_ID":3597,"ELEMENT_SET_NO":999,"REV_AT_EPOCH":2615,"BSTAR":7.164e-5,"MEAN_MOTION_DOT":2.47e-6,"MEAN_MOTION_DDOT":0},{"OBJECT_NAME":"ISIS 1","OBJECT_ID":"1969-009A","EPOCH":"2026-04-27T03:03:44.443872","MEAN_MOTION":11.30424602,"ECCENTRICITY":0.1706954,"INCLINATION":88.4443,"RA_OF_ASC_NODE":150.0111,"ARG_OF_PERICENTER":351.4221,"MEAN_ANOMALY":6.0735,"EPHEMERIS_TYPE":0,"CLASSIFICATION_TYPE":"U","NORAD_CAT_ID":3669,"ELEMENT_SET_NO":999,"REV_AT_EPOCH":35400,"BSTAR":8.1215559e-5,"MEAN_MOTION_DOT":1.19e-6,"MEAN_MOTION_DDOT":0},{"OBJECT_NAME":"SERT 2","OBJECT_ID":"1970-009A","EPOCH":"2026-04-27T19:30:15.330816","MEAN_MOTION":13.5873592,"ECCENTRICITY":0.0005591,"INCLINATION":99.2818,"RA_OF_ASC_NODE":58.2357,"ARG_OF_PERICENTER":46.5075,"MEAN_ANOMALY":8.0585,"EPHEMERIS_TYPE":0,"CLASSIFICATION_TYPE":"U","NORAD_CAT_ID":4327,"ELEMENT_SET_NO":999,"REV_AT_EPOCH":78656,"BSTAR":9.1704e-5,"MEAN_MOTION_DOT":2.6e-7,"MEAN_MOTION_DDOT":0},{"OBJECT_NAME":"SL-3 R/B","OBJECT_ID":"1971-028B","EPOCH":"2026-04-27T19:31:57.110016","MEAN_MOTION":15.65345618,"ECCENTRICITY":0.0016338,"INCLINATION":81.2363,"RA_OF_ASC_NODE":351.1655,"ARG_OF_PERICENTER":104.6874,"MEAN_ANOMALY":255.6193,"EPHEMERIS_TYPE":0,"CLASSIFICATION_TYPE":"U","NORAD_CAT_ID":5118,"ELEMENT_SET_NO":999,"REV_AT_EPOCH":99634,"BSTAR":0.00045813,"MEAN_MOTION_DOT":0.00046055,"MEAN_MOTION_DDOT":0},{"OBJECT_NAME":"ASTEX 1","OBJECT_ID":"1971-089A","EPOCH":"2026-04-27T17:22:04.829664","MEAN_MOTION":14.5081376,"ECCENTRICITY":0.0013219,"INCLINATION":92.7043,"RA_OF_ASC_NODE":167.5951,"ARG_OF_PERICENTER":280.1808,"MEAN_ANOMALY":79.7907,"EPHEMERIS_TYPE":0,"CLASSIFICATION_TYPE":"U","NORAD_CAT_ID":5560,"ELEMENT_SET_NO":999,"REV_AT_EPOCH":86941,"BSTAR":8.734e-5,"MEAN_MOTION_DOT":3.43e-6,"MEAN_MOTION_DDOT":0},{"OBJECT_NAME":"SL-8 R/B","OBJECT_ID":"1971-119B","EPOCH":"2026-04-27T14:57:55.431072","MEAN_MOTION":14.38705156,"ECCENTRICITY":0.0545272,"INCLINATION":73.8849,"RA_OF_ASC_NODE":84.1857,"ARG_OF_PERICENTER":40.485,"MEAN_ANOMALY":323.5561,"EPHEMERIS_TYPE":0,"CLASSIFICATION_TYPE":"U","NORAD_CAT_ID":5730,"ELEMENT_SET_NO":999,"REV_AT_EPOCH":66252,"BSTAR":0.00057875,"MEAN_MOTION_DOT":0.00011171,"MEAN_MOTION_DDOT":0},{"OBJECT_NAME":"OAO 3 (COPERNICUS)","OBJECT_ID":"1972-065A","EPOCH":"2026-04-27T20:04:55.258752","MEAN_MOTION":14.60032854,"ECCENTRICITY":0.0007013,"INCLINATION":35.0071,"RA_OF_ASC_NODE":17.2933,"ARG_OF_PERICENTER":208.0313,"MEAN_ANOMALY":211.2867,"EPHEMERIS_TYPE":0,"CLASSIFICATION_TYPE":"U","NORAD_CAT_ID":6153,"ELEMENT_SET_NO":999,"REV_AT_EPOCH":85338,"BSTAR":7.6885e-5,"MEAN_MOTION_DOT":3.54e-6,"MEAN_MOTION_DDOT":0},{"OBJECT_NAME":"ATLAS CENTAUR R/B","OBJECT_ID":"1972-065B","EPOCH":"2026-04-27T19:29:18.574656","MEAN_MOTION":14.77815761,"ECCENTRICITY":0.0032783,"INCLINATION":35.0028,"RA_OF_ASC_NODE":17.8441,"ARG_OF_PERICENTER":63.1865,"MEAN_ANOMALY":297.2183,"EPHEMERIS_TYPE":0,"CLASSIFICATION_TYPE":"U","NORAD_CAT_ID":6155,"ELEMENT_SET_NO":999,"REV_AT_EPOCH":84853,"BSTAR":0.00019587,"MEAN_MOTION_DOT":1.418e-5,"MEAN_MOTION_DDOT":0},{"OBJECT_NAME":"SL-8 R/B","OBJECT_ID":"1975-112B","EPOCH":"2026-04-27T19:40:58.419840","MEAN_MOTION":14.38226148,"ECCENTRICITY":0.0015513,"INCLINATION":74.0596,"RA_OF_ASC_NODE":288.5319,"ARG_OF_PERICENTER":3.8491,"MEAN_ANOMALY":356.2779,"EPHEMERIS_TYPE":0,"CLASSIFICATION_TYPE":"U","NORAD_CAT_ID":8459,"ELEMENT_SET_NO":999,"REV_AT_EPOCH":63893,"BSTAR":5.8715e-5,"MEAN_MOTION_DOT":1.52e-6,"MEAN_MOTION_DDOT":0},{"OBJECT_NAME":"SL-3 R/B","OBJECT_ID":"1977-057B","EPOCH":"2026-04-27T18:35:45.781152","MEAN_MOTION":15.46788578,"ECCENTRICITY":0.0008429,"INCLINATION":97.5819,"RA_OF_ASC_NODE":291.924,"ARG_OF_PERICENTER":105.5397,"MEAN_ANOMALY":254.6783,"EPHEMERIS_TYPE":0,"CLASSIFICATION_TYPE":"U","NORAD_CAT_ID":10114,"ELEMENT_SET_NO":999,"REV_AT_EPOCH":67591,"BSTAR":0.00028515,"MEAN_MOTION_DOT":0.00014221,"MEAN_MOTION_DDOT":0},{"OBJECT_NAME":"SEASAT 1","OBJECT_ID":"1978-064A","EPOCH":"2026-04-27T19:33:52.706304","MEAN_MOTION":14.46201648,"ECCENTRICITY":0.0002768,"INCLINATION":108.0087,"RA_OF_ASC_NODE":228.5715,"ARG_OF_PERICENTER":259.3388,"MEAN_ANOMALY":100.7446,"EPHEMERIS_TYPE":0,"CLASSIFICATION_TYPE":"U","NORAD_CAT_ID":10967,"ELEMENT_SET_NO":999,"REV_AT_EPOCH":51361,"BSTAR":0.00013932,"MEAN_MOTION_DOT":3.61e-6,"MEAN_MOTION_DDOT":0},{"OBJECT_NAME":"SL-14 R/B","OBJECT_ID":"1979-011B","EPOCH":"2026-04-27T19:24:33.664608","MEAN_MOTION":14.91968822,"ECCENTRICITY":0.0014436,"INCLINATION":82.5256,"RA_OF_ASC_NODE":49.9546,"ARG_OF_PERICENTER":251.9215,"MEAN_ANOMALY":108.0433,"EPHEMERIS_TYPE":0,"CLASSIFICATION_TYPE":"U","NORAD_CAT_ID":11267,"ELEMENT_SET_NO":999,"REV_AT_EPOCH":53610,"BSTAR":5.2017e-5,"MEAN_MOTION_DOT":5.53e-6,"MEAN_MOTION_DDOT":0}]
