ATLAS CENTAUR 2         
1 00694U 63047A   26117.81775512  .00004305  00000+0  51552-3 0  9994
2 00694  30.3535 281.0431 0546487 153.3461 209.6345 14.12311001138573
THOR AGENA D R/B        
1 00733U 64002A   26117.78185774  .00000182  00000+0  81811-4 0  9992
2 00733  99.1186 133.7901 0033896 114.9701 245.5009 14.34043795245337
SL-3 R/B                
1 00877U 64053B   26117.55330970  .00000161  00000+0  55421-4 0  9997
2 00877  65.0765 187.9730 0081148 276.9031  82.2843 14.61400052273932
SL-8 R/B                
1 02802U 67045B   26117.84636125  .00000350  00000+0  10454-3 0  9990
2 02802  74.0105 256.2775 0065154 252.1158 107.2888 14.45656531 96122
SL-8 R/B                
1 03230U 68040B   26117.68549354  .00003247  00000+0  23923-3 0  9994
2 03230  74.0316 213.5492 0024136  17.4554 342.7459 15.03570018 97379
OAO 2                   
1 03597U 68110A   26117.34986826  .00000247  00000+0  71640-4 0  9997
2 03597  34.9949 353.5329 0006161 232.0894 127.9240 14.47332436 26152
ISIS 1                  
1 03669U 69009A   26117.12759773  .00000119  00000+0  81216-4 0  9998
2 03669  88.4443 150.0111 1706954 351.4221   6.0735 11.30424602354002
SERT 2                  
1 04327U 70009A   26117.81267744  .00000026  00000+0  91704-4 0  9990
2 04327  99.2818  58.2357 0005591  46.5075   8.0585 13.58735920786563
SL-3 R/B                
1 05118U 71028B   26117.81385544  .00046055  00000+0  45813-3 0  9991
2 05118  81.2363 351.1655 0016338 104.6874 255.6193 15.65345618996343
ASTEX 1                 
1 05560U 71089A   26117.72366701  .00000343  00000+0  87340-4 0  9995
2 05560  92.7043 167.5951 0013219 280.1808  79.7907 14.50813760869412
SL-8 R/B                
1 05730U 71119B   26117.62355823  .00011171  00000+0  57875-3 0  9990
2 05730  73.8849  84.1857 0545272  40.4850 323.5561 14.38705156662521
OAO 3 (COPERNICUS)      
1 06153U 72065A   26117.83675068  .00000354  00000+0  76885-4 0  9994
2 06153  35.0071  17.2933 0007013 208.0313 211.2867 14.60032854853383
ATLAS CENTAUR R/B       
1 06155U 72065B   26117.81202054  .00001418  00000+0  19587-3 0  9992
2 06155  35.0028  17.8441 0032783  63.1865 297.2183 14.77815761848531
SL-8 R/B                
1 08459U 75112B   26117.82012060  .00000152  00000+0  58715-4 0  9995
2 08459  74.0596 288.5319 0015513   3.8491 356.2779 14.38226148638932
SL-3 R/B                
1 10114U 77057B   26117.77483543  .00014221  00000+0  28515-3 0  9994
2 10114  97.5819 291.9240 0008429 105.5397 254.6783 15.46788578675910
SEASAT 1                
1 10967U 78064A   26117.81519336  .00000361  00000+0  13932-3 0  9991
2 10967 108.0087 228.5715 0002768 259.3388 100.7446 14.46201648513614
SL-14 R/B               
1 11267U 79011B   26117.80872297  .00000553  00000+0  52017-4 0  9996
2 11267  82.5256  49.9546 0014436 251.9215 108.0433 14.91968822536101
